ONEWEB-0387             
1 49313U 21090AL  23318.16538524 -.00000103  00000+0 -28526-3 0  9994
2 49313  87.9169 102.8279 0001867 102.2984 257.8359 13.20775334106257
ONEWEB-0388             
1 49314U 21090AM  23318.44172306 -.00002481  00000+0 -62316-2 0  9993
2 49314  87.9170 133.2194 0001704  82.0771 278.0555 13.19708792102962
ONEWEB-0389             
1 50469U 21132A   23318.10929509  .00000101  00000+0  22767-3 0  9993
2 50469  87.9245 193.9137 0001960  88.6004 271.5352 13.17648136 94789
ONEWEB-0390             
1 50470U 21132B   23317.95952003  .00000597  00000+0  15038-2 0  9993
2 50470  87.9244 193.9508 0002028 101.4654 258.6705 13.17647711 93474
ONEWEB-0391             
1 50471U 21132C   23318.11349719  .00000097  00000+0  21672-3 0  9994
2 50471  87.9246 193.8908 0001810  82.6148 277.5189 13.17651230 94788
ONEWEB-0392             
1 50472U 21132D   23318.37086538  .00000075  00000+0  16096-3 0  9990
2 50472  87.9232 193.8715 0001801  86.0926 274.0412 13.17650295 94851
ONEWEB-0393             
1 50473U 21132E   23318.15254267  .00000119  00000+0  27231-3 0  9995
2 50473  87.9241 193.8851 0001477  86.9264 273.2037 13.17648995 94810
ONEWEB-0394             
1 50474U 21132F   23318.06962708  .00000145  00000+0  33492-3 0  9997
2 50474  87.9226 163.6674 0001738  82.7481 277.3849 13.18685840 98177
ONEWEB-0395             
1 50475U 21132G   23318.16375170  .00000507  00000+0  13956-2 0  9994
2 50475  87.9002 209.0608 0001820  84.5567 275.5769 13.11415331 92993
ONEWEB-0396             
1 50476U 21132H   23317.53215797  .00000110  00000+0  24580-3 0  9999
2 50476  87.9227 163.7655 0001792  81.0921 279.0414 13.18689457 98143
ONEWEB-0397             
1 50477U 21132J   23317.54693571  .00000049  00000+0  92746-4 0  9992
2 50477  87.9226 163.7637 0001897  81.2701 278.8646 13.18686070 96855
ONEWEB-0398             
1 50478U 21132K   23318.13127768 -.00000068  00000+0 -22692-3 0  9994
2 50478  87.8992 209.0583 0001572  93.2863 266.8445 13.11414589 92892
ONEWEB-0399             
1 50479U 21132L   23317.96406935 -.00000493  00000+0 -14255-2 0  9998
2 50479  87.8999 209.1028 0001940  65.0844 295.0485 13.11416551 91584
ONEWEB-0400             
1 50480U 21132M   23318.28461786  .00000044  00000+0  78272-4 0  9992
2 50480  87.9226 163.6254 0001441  91.0685 269.0612 13.18686500 98224
ONEWEB-0401             
1 50481U 21132N   23318.47851985  .00000064  00000+0  12868-3 0  9998
2 50481  87.9225 163.5869 0001724  69.8085 290.3232 13.18685902 98259
ONEWEB-0402             
1 50482U 21132P   23318.14127717 -.00000002  00000+0 -38044-4 0  9991
2 50482  87.9227 163.6507 0001315  59.3279 300.7983 13.18689218 98238
ONEWEB-0403             
1 50483U 21132Q   23317.86096043  .00000072  00000+0  14893-3 0  9997
2 50483  87.9227 163.7091 0001972  79.2099 280.9255 13.18683874 96879
ONEWEB-0404             
1 50484U 21132R   23318.09882568 -.00000062  00000+0 -20987-3 0  9991
2 50484  87.8998 209.0329 0002167  79.7756 280.3616 13.11412570 92961
ONEWEB-0405             
1 50485U 21132S   23317.80570059  .00000024  00000+0  26985-4 0  9990
2 50485  87.9228 163.7119 0001779  66.3425 293.7894 13.19206670 97269
ONEWEB-0406             
1 50486U 21132T   23317.86518991  .00000093  00000+0  20332-3 0  9999
2 50486  87.9223 163.7079 0002029  86.9619 273.1746 13.18687933 96904
ONEWEB-0407             
1 50487U 21132U   23318.31411778  .00000115  00000+0  25886-3 0  9990
2 50487  87.9225 163.6272 0001699  76.5172 283.6149 13.18685284 98195
ONEWEB-0409             
1 50488U 21132V   23317.25792351 -.00000128  00000+0 -39602-3 0  9999
2 50488  87.8991 209.2145 0002082  90.2232 269.9134 13.11414307 91472
ONEWEB-0412             
1 50489U 21132W   23318.07595923  .00000177  00000+0  41653-3 0  9998
2 50489  87.9230 163.6635 0001828  64.2927 295.8394 13.18689300 98248
ONEWEB-0413             
1 50490U 21132X   23318.30778673  .00000175  00000+0  41001-3 0  9996
2 50490  87.9228 163.6313 0001643  67.9813 292.1494 13.18684595 98229
ONEWEB-0414             
1 50491U 21132Y   23317.83885436 -.00001925  00000+0 -49181-2 0  9992
2 50491  87.9227 163.7115 0001741  72.4205 287.7118 13.18670711 96906
ONEWEB-0417             
1 50492U 21132Z   23317.84621371  .00000162  00000+0  37713-3 0  9999
2 50492  87.9168 163.7164 0002331 100.5151 259.6243 13.18685908 96882
ONEWEB-0418             
1 50493U 21132AA  23317.85989362  .00000056  00000+0  10819-3 0  9998
2 50493  87.9228 163.7083 0002061  92.6433 267.4935 13.18688735 96947
ONEWEB-0419             
1 50494U 21132AB  23318.48061188 -.00000028  00000+0 -10265-3 0  9992
2 50494  87.9224 163.6086 0001657  97.1486 262.9834 13.18689614 98233
ONEWEB-0420             
1 50495U 21132AC  23317.83988139  .00000203  00000+0  48264-3 0  9998
2 50495  87.9227 163.7436 0001336  70.1819 289.9457 13.18688539 96853
ONEWEB-0421             
1 50496U 21132AD  23318.13707693  .00000123  00000+0  27896-3 0  9996
2 50496  87.9169 163.6479 0001880  68.9177 291.2156 13.18686240 98234
ONEWEB-0424             
1 50497U 21132AE  23317.86939857 -.00000040  00000+0 -13302-3 0  9992
2 50497  87.9228 163.7038 0001419 102.8840 257.2450 13.18686748 96922
ONEWEB-0426             
1 50498U 21132AF  23317.83145105  .00000116  00000+0  26197-3 0  9993
2 50498  87.9225 163.7369 0002297  83.4815 276.6579 13.18684399 96868
ONEWEB-0427             
1 50499U 21132AG  23318.32254300 -.00000048  00000+0 -15531-3 0  9993
2 50499  87.9225 163.6143 0001806  88.5360 271.5979 13.18687311 98254
ONEWEB-0429             
1 50500U 21132AH  23317.85464670  .00000010  00000+0 -70711-5 0  9997
2 50500  87.9212 163.7093 0001495  79.2381 280.8919 13.18682137 96865
ONEWEB-0430             
1 50501U 21132AJ  23317.84409440 -.00000463  00000+0 -12077-2 0  9992
2 50501  87.9229 163.7138 0001479  87.0197 273.1105 13.18685551 96908
ONEWEB-0432             
1 50502U 21132AK  23317.87572152  .00000044  00000+0  78073-4 0  9990
2 50502  87.9227 163.7030 0001491  83.7431 276.3870 13.18686397 96864
ONEWEB-0440             
1 50503U 21132AL  23317.86307104  .00000040  00000+0  69579-4 0  9990
2 50503  87.9154 163.7052 0001838  60.4245 299.7070 13.18687248 96854
ONEWEB-0450             
1 50504U 21132AM  23317.85676204 -.00001076  00000+0 -27625-2 0  9996
2 50504  87.9197 163.7314 0001255  75.8965 284.2307 13.18674183 96884
ONEWEB-0410             
1 51622U 22012A   23318.43202234  .00000019  00000+0  15131-4 0  9994
2 51622  87.9180 193.8563 0002770  82.2972 277.8474 13.17649609 90444
ONEWEB-0411             
1 51623U 22012B   23317.48561482  .00000016  00000+0  85968-5 0  9995
2 51623  87.8930 224.2568 0001516  81.8662 278.2637 13.10376810 85308
ONEWEB-0415             
1 51624U 22012C   23318.16957245 -.00000333  00000+0 -99025-3 0  9999
2 51624  87.8933 224.1495 0001542  83.2972 276.8331 13.10372369 86670
ONEWEB-0416             
1 51625U 22012D   23318.10459228 -.00000597  00000+0 -17461-2 0  9997
2 51625  87.8934 224.1486 0001710  69.4224 290.7087 13.10375608 86712
ONEWEB-0422             
1 51626U 22012E   23318.13671687  .00000107  00000+0  24211-3 0  9993
2 51626  87.9178 193.9084 0001292  44.1769 315.9465 13.17650604 90501
ONEWEB-0423             
1 51627U 22012F   23317.90257112  .00000039  00000+0  67044-4 0  9997
2 51627  87.9245 193.9393 0001584  74.6128 285.5178 13.17647363 89083
ONEWEB-0425             
1 51628U 22012G   23318.49615393  .00000593  00000+0  16613-2 0  9991
2 51628  87.8927 224.0619 0002132  66.4363 293.6988 13.10373516 86767
ONEWEB-0428             
1 51629U 22012H   23317.48400264 -.00000095  00000+0 -30938-3 0  9995
2 51629  87.8932 224.2745 0001375  64.9782 295.1488 13.10376085 85307
ONEWEB-0431             
1 51630U 22012J   23318.44563475  .00000105  00000+0  26571-3 0  9996
2 51630  87.8936 224.0908 0001031  92.2455 267.8791 13.10368597 86776
ONEWEB-0434             
1 51631U 22012K   23318.11761588  .00000540  00000+0  15100-2 0  9994
2 51631  87.8929 224.1601 0001583  64.3615 295.7676 13.10374114 86718
ONEWEB-0435             
1 51632U 22012L   23318.12572702  .00000709  00000+0  19943-2 0  9990
2 51632  87.8926 224.1482 0001365  60.4865 299.6398 13.10373092 86690
ONEWEB-0436             
1 51633U 22012M   23318.19999155  .00000152  00000+0  35914-3 0  9992
2 51633  87.9235 193.8965 0001450  68.1376 291.9910 13.17650841 90394
ONEWEB-0438             
1 51634U 22012N   23318.49125684  .00000434  00000+0  12057-2 0  9999
2 51634  87.8931 224.0766 0001852  68.1363 291.9961 13.10377628 86781
ONEWEB-0439             
1 51635U 22012P   23318.11274940  .00001084  00000+0  30694-2 0  9998
2 51635  87.8930 224.1345 0001715  70.4490 289.6823 13.10371196 86707
ONEWEB-0442             
1 51636U 22012Q   23318.41935050 -.00003256  00000+0 -84199-2 0  9992
2 51636  87.9239 193.8793 0002304  91.9602 268.1794 13.17663203 90410
ONEWEB-0443             
1 51637U 22012R   23318.36242371  .00000096  00000+0  21421-3 0  9991
2 51637  87.9240 193.8956 0001611  54.9586 305.1696 13.17648883 90458
ONEWEB-0444             
1 51638U 22012S   23318.10297075 -.00000061  00000+0 -20975-3 0  9992
2 51638  87.8937 224.1653 0001624  64.6151 295.5144 13.10375563 86723
ONEWEB-0445             
1 51639U 22012T   23318.42954836  .00000713  00000+0  20076-2 0  9996
2 51639  87.8918 224.0865 0001917  82.8700 277.2645 13.10370547 86768
ONEWEB-0446             
1 51640U 22012U   23318.48315268  .00000026  00000+0  38198-4 0  9997
2 51640  87.8933 224.0809 0001597  78.1472 281.9835 13.10375065 86777
ONEWEB-0448             
1 51641U 22012V   23318.10624556  .00000164  00000+0  43375-3 0  9995
2 51641  87.8932 224.1570 0001706  63.7988 296.3315 13.10374750 86680
ONEWEB-0449             
1 51642U 22012W   23318.49290466  .00000421  00000+0  11694-2 0  9991
2 51642  87.8934 224.0846 0001975  71.4129 288.7212 13.10378065 86751
